NORAD_CAT_ID,OBJECT_NAME,OBJECT_TYPE,EPOCH,MEAN_MOTION,ECCENTRICITY,INCLINATION,RA_OF_ASC_NODE,ARG_OF_PERICENTER,MEAN_ANOMALY,BSTAR,MEAN_MOTION_DOT,MEAN_MOTION_DDOT,TLE_LINE0,TLE_LINE1,TLE_LINE2,SEMIMAJOR_AXIS,PERIOD,APOGEE,PERIGEE,DECAYED
53626.0,STARLINK-4554,PAYLOAD,2022-10-03 22:00:00,15.73222186,0.0001209,53.2155,105.9146,97.3816,40.7573,-0.00019953,-0.00028554,0.0,0 STARLINK-4554,1 53626U 22104AQ  22276.91667824 -.00028554  00000-0 -19953-3 0  9999,2 53626  53.2155 105.9146 0001209  97.3816  40.7573 15.73222186  1304,6727.831999999999,91.532,350.51,348.884,0.0
53626.0,STARLINK-4554,PAYLOAD,2022-10-04 06:00:00,15.73226458,0.0001329,53.2164,104.2618,98.7139,128.3723,-0.0016852,-0.00231011,0.0,0 STARLINK-4554,1 53626U 22104AQ  22277.25001157 -.00231011  00000-0 -16852-2 0  9996,2 53626  53.2164 104.2618 0001329  98.7139 128.3723 15.73226458  5878,6727.82,91.532,350.579,348.791,0.0
53626.0,STARLINK-4554,PAYLOAD,2022-10-04 14:00:01,15.73150791,0.0001597,53.2171,102.6103,105.6926,210.2222,0.00063038,0.00088601,0.0,0 STARLINK-4554,1 53626U 22104AQ  22277.58334491  .00088601  00000-0  63038-3 0  9994,2 53626  53.2171 102.6103 0001597 105.6926 210.2222 15.73150791  5923,6728.035,91.536,350.975,348.826,0.0
53626.0,STARLINK-4554,PAYLOAD,2022-10-04 22:00:00,15.73168597,0.0001085999999999,53.2156,100.966,89.7217,315.2708,0.0003488,0.00048549,0.0,0 STARLINK-4554,1 53626U 22104AQ  22277.91667824  .00048549  00000-0  34880-3 0  9990,2 53626  53.2156 100.9660 0001086  89.7217 315.2708 15.73168597  1309,6727.985,91.535,350.58,349.119,0.0
53626.0,STARLINK-4554,PAYLOAD,2022-10-05 06:00:00,15.73194368,9.63e-05,53.2153,99.3147,97.7949,36.1161,-0.00036866,-0.00052025,0.0,0 STARLINK-4554,1 53626U 22104AQ  22278.25001157 -.00052025  00000-0 -36866-3 0  9991,2 53626  53.2153  99.3147 0000963  97.7949  36.1161 15.73194368  6033,6727.911,91.534,350.4240000000001,349.12800000000016,0.0
53626.0,STARLINK-4554,PAYLOAD,2022-10-05 14:00:01,15.73201622,0.0001179,53.2155,97.665,99.0421,123.823,-0.00029692,-0.00042085,0.0,0 STARLINK-4554,1 53626U 22104AQ  22278.58335648 -.00042085  00000-0 -29692-3 0  9996,2 53626  53.2155  97.6650 0001179  99.0421 123.8230 15.73201622  1303,6727.891,91.533,350.5490000000001,348.962,0.0
53626.0,STARLINK-4554,PAYLOAD,2022-10-05 22:00:00,15.73187466,0.0001195,53.2162,96.0162,88.4165,223.2929,-0.00033438,-0.00047259,0.0,0 STARLINK-4554,1 53626U 22104AQ  22278.91667824 -.00047259  00000-0 -33438-3 0  9998,2 53626  53.2162  96.0162 0001195  88.4165 223.2929 15.73187466  6132,6727.931,91.534,350.6,348.992,0.0
53626.0,STARLINK-4554,PAYLOAD,2022-10-06 06:00:00,15.73230956,0.00013,53.216,94.3646,88.7745,311.8168,-0.00063044,-0.00088291,0.0,0 STARLINK-4554,1 53626U 22104AQ  22279.25001157 -.00088291  00000-0 -63044-3 0  9994,2 53626  53.2160  94.3646 0001300  88.7745 311.8168 15.73230956  6180,6727.807,91.531,350.547,348.797,0.0
53626.0,STARLINK-4554,PAYLOAD,2022-10-06 14:00:01,15.73240943,0.0001341,53.2168,92.7132,96.8221,32.7026,-0.0051103,-0.00664943,0.0,0 STARLINK-4554,1 53626U 22104AQ  22279.58334491 -.00664943  00000-0 -51103-2 0  9996,2 53626  53.2168  92.7132 0001341  96.8221  32.7026 15.73240943  1302,6727.778,91.531,350.546,348.741,0.0
53626.0,STARLINK-4554,PAYLOAD,2022-10-06 22:42:55,15.72739042,9.54e-05,53.2174,90.9178,83.7745,303.2244,-0.0084877999999999,-0.01051111,0.0,0 STARLINK-4554,1 53626U 22104AQ  22279.94646991 -.01051111  00000-0 -84878-2 0  9990,2 53626  53.2174  90.9178 0000954  83.7745 303.2244 15.72739042  1304,6729.21,91.56,351.717,350.43300000000005,0.0
53626.0,STARLINK-4554,PAYLOAD,2022-10-07 00:00:00,15.72619204,9.63e-05,53.2173,90.6528,84.3753,245.93,-0.0085557,-0.0105377999999999,0.0,0 STARLINK-4554,1 53626U 22104AQ  22280.00001157 -.01053780  00000-0 -85557-2 0  9997,2 53626  53.2173  90.6528 0000963  84.3753 245.9300 15.72619204  6302,6729.552,91.567,352.065,350.769,0.0
53626.0,STARLINK-4554,PAYLOAD,2022-10-07 14:00:01,15.71291193,0.000108,53.2171,87.7703,69.1844,324.1090000000001,-0.0090819,-0.01056608,0.0,0 STARLINK-4554,1 53626U 22104AQ  22280.58334491 -.01056608  00000-0 -90819-2 0  9999,2 53626  53.2171  87.7703 0001080  69.1844 324.1090 15.71291193  1308,6733.343000000003,91.644,355.935,354.481,0.0
53626.0,STARLINK-4554,PAYLOAD,2022-10-07 22:00:00,15.70526461,0.0001127,53.2172,86.1281,81.1917,38.2692,-0.0092877,-0.01047193,0.0,0 STARLINK-4554,1 53626U 22104AQ  22280.91667824 -.01047193  00000-0 -92877-2 0  9990,2 53626  53.2172  86.1281 0001127  81.1917  38.2692 15.70526461  6450,6735.528,91.689,358.152,356.634,0.0
53626.0,STARLINK-4554,PAYLOAD,2022-10-08 14:00:01,15.69020269,0.0001044999999999,53.217,82.8441,76.9319,212.1201,-0.010083,-0.01065249,0.0,0 STARLINK-4554,1 53626U 22104AQ  22281.58334491 -.01065249  00000-0 -10083-1 0  9995,2 53626  53.2170  82.8441 0001045  76.9319 212.1201 15.69020269  6559,6739.8380000000025,91.777,362.408,360.999,0.0
53626.0,STARLINK-4554,PAYLOAD,2022-10-08 22:00:00,15.6824888,0.0001127,53.217,81.2074,68.7991,303.686,-0.010225,-0.01048173,0.0,0 STARLINK-4554,1 53626U 22104AQ  22281.91667824 -.01048173  00000-0 -10225-1 0  9996,2 53626  53.2170  81.2074 0001127  68.7991 303.6860 15.68248880  1305,6742.0480000000025,91.822,364.673,363.153,0.0
53626.0,STARLINK-4554,PAYLOAD,2022-10-09 14:00:01,15.66730533,0.0001369,53.2176,77.9344,57.0182,119.5874,-0.010888,-0.01048703,0.0,0 STARLINK-4554,1 53626U 22104AQ  22282.58334491 -.01048703  00000-0 -10888-1 0  9995,2 53626  53.2176  77.9344 0001369  57.0182 119.5874 15.66730533  1302,6746.403,91.911,369.192,367.345,0.0
53626.0,STARLINK-4554,PAYLOAD,2022-10-09 22:00:00,15.6596997,0.0001276,53.2172,76.3027,56.5332,200.7627,-0.011198,-0.01045985,0.0,0 STARLINK-4554,1 53626U 22104AQ  22282.91667824 -.01045985  00000-0 -11198-1 0  9995,2 53626  53.2172  76.3027 0001276  56.5332 200.7627 15.65969970  1304,6748.5880000000025,91.956,371.314,369.591,0.0
53626.0,STARLINK-4554,PAYLOAD,2022-10-10 06:00:00,15.65211336,0.0001091,53.2172,74.6697,57.8325,279.2428,-0.011574,-0.01048159,0.0,0 STARLINK-4554,1 53626U 22104AQ  22283.25001157 -.01048159  00000-0 -11574-1 0  9998,2 53626  53.2172  74.6697 0001091  57.8325 279.2428 15.65211336  6816,6750.768,92.0,373.37,371.897,0.0
53626.0,STARLINK-4554,PAYLOAD,2022-10-10 14:00:01,15.64453942,0.0001258,53.2174,73.0415,51.6915,4.2479,-0.011967,-0.01051034,0.0,0 STARLINK-4554,1 53626U 22104AQ  22283.58334491 -.01051034  00000-0 -11967-1 0  9996,2 53626  53.2174  73.0415 0001258  51.6915   4.2479 15.64453942  1302,6752.946999999999,92.045,375.661,373.962,0.0
53626.0,STARLINK-4554,PAYLOAD,2022-10-10 22:00:01,15.636919099999998,0.0001296999999999,53.2172,71.4151,56.6459,77.3117,-0.012274,-0.0104627999999999,0.0,0 STARLINK-4554,1 53626U 22104AQ  22283.91668981 -.01046280  00000-0 -12274-1 0  9996,2 53626  53.2172  71.4151 0001297  56.6459  77.3117 15.63691910  6921,6755.14,92.09,377.882,376.129,0.0
53626.0,STARLINK-4554,PAYLOAD,2022-10-11 14:00:01,15.62173862,0.0001272,53.2176,68.1653,56.9596,230.1006,-0.0130479999999999,-0.01063681,0.0,0 STARLINK-4554,1 53626U 22104AQ  22284.58334491 -.01063681  00000-0 -13048-1 0  9990,2 53626  53.2176  68.1653 0001272  56.9596 230.1006 15.62173862  7021,6759.516,92.179,382.241,380.521,0.0
53626.0,STARLINK-4554,PAYLOAD,2022-10-11 22:00:00,15.61417693,0.0001453,53.2169,66.5447,39.6426,322.6301,-0.013493,-0.01067607,0.0,0 STARLINK-4554,1 53626U 22104AQ  22284.91667824 -.01067607  00000-0 -13493-1 0  9992,2 53626  53.2169  66.5447 0001453  39.6426 322.6301 15.61417693  1309,6761.698,92.224,384.546,382.581,0.0
53626.0,STARLINK-4554,PAYLOAD,2022-10-12 06:00:00,15.60653756,0.0001418,53.2173,64.9222,41.1649,35.4139,-0.013822,-0.01062177,0.0,0 STARLINK-4554,1 53626U 22104AQ  22285.25001157 -.01062177  00000-0 -13822-1 0  9994,2 53626  53.2173  64.9222 0001418  41.1649  35.4139 15.60653756  7139,6763.904,92.269,386.729,384.81,0.0
53626.0,STARLINK-4554,PAYLOAD,2022-10-12 14:00:01,15.5989324,0.0001585,53.2174,63.3054,44.3624,105.6053,-0.0142,-0.01059929,0.0,0 STARLINK-4554,1 53626U 22104AQ  22285.58334491 -.01059929  00000-0 -14200-1 0  9992,2 53626  53.2174  63.3054 0001585  44.3624 105.6053 15.59893240  1309,6766.103,92.314,389.04,386.895,0.0
53626.0,STARLINK-4554,PAYLOAD,2022-10-12 22:00:00,15.59136721,0.000152,53.217,61.6898,45.6656,176.7773,-0.014684,-0.01064258,0.0,0 STARLINK-4554,1 53626U 22104AQ  22285.91667824 -.01064258  00000-0 -14684-1 0  9995,2 53626  53.2170  61.6898 0001520  45.6656 176.7773 15.59136721  7230,6768.291,92.359,391.185,389.128,0.0
53626.0,STARLINK-4554,PAYLOAD,2022-10-13 14:00:01,15.57617769,0.0001475,53.2173,58.4622,38.5759,326.083,-0.0155539999999999,-0.01064061,0.0,0 STARLINK-4554,1 53626U 22104AQ  22286.58334491 -.01064061  00000-0 -15554-1 0  9999,2 53626  53.2173  58.4622 0001475  38.5759 326.0830 15.57617769  1306,6772.691,92.449,395.555,393.557,0.0
53626.0,STARLINK-4554,PAYLOAD,2022-10-13 20:00:01,15.57045863,0.0001459,53.2174,57.2548,38.5122,288.6015,-0.0158199999999999,-0.010596,0.0,0 STARLINK-4554,1 53626U 22104AQ  22286.83335648 -.01059600  00000-0 -15820-1 0  9991,2 53626  53.2174  57.2548 0001459  38.5122 288.6015 15.57045863  7378,6774.349,92.483,397.202,395.226,0.0
53626.0,STARLINK-4554,PAYLOAD,2022-10-13 22:00:00,15.56857391,0.0001599,53.2171,56.8518,35.2955,39.1024,-0.0159699999999999,-0.01061914,0.0,0 STARLINK-4554,1 53626U 22104AQ  22286.91667824 -.01061914  00000-0 -15970-1 0  9991,2 53626  53.2171  56.8518 0001599  35.2955  39.1024 15.56857391  1302,6774.896,92.494,397.844,395.677,0.0
53626.0,STARLINK-4554,PAYLOAD,2022-10-14 14:00:01,15.5533563,0.000168,53.2175,53.6355,42.7287,168.4102,-0.016829,-0.01057657,0.0,0 STARLINK-4554,1 53626U 22104AQ  22287.58334491 -.01057657  00000-0 -16829-1 0  9999,2 53626  53.2175  53.6355 0001680  42.7287 168.4102 15.55335630  1301,6779.314,92.585,402.318,400.04,0.0
